NORAD_CAT_ID,OBJECT_NAME,OBJECT_TYPE,EPOCH,MEAN_MOTION,ECCENTRICITY,INCLINATION,RA_OF_ASC_NODE,ARG_OF_PERICENTER,MEAN_ANOMALY,BSTAR,MEAN_MOTION_DOT,MEAN_MOTION_DDOT,TLE_LINE0,TLE_LINE1,TLE_LINE2,SEMIMAJOR_AXIS,PERIOD,APOGEE,PERIGEE,DECAYED
52113.0,STARLINK-3736,PAYLOAD,2024-02-29 15:12:33,15.08846461,0.0001367,53.2163,156.8714,92.9837,267.1311,7.996e-05,9.85e-06,0.0,0 STARLINK-3736,1 52113U 22029AB  24060.63372631  .00000985  00000-0  79960-4 0  9997,2 52113  53.2163 156.8714 0001367  92.9837 267.1311 15.08846461109218,6917.861,95.437,540.671,538.78,0.0
52113.0,STARLINK-3736,PAYLOAD,2024-02-29 23:09:29,15.08843354,0.0001363,53.2169,155.3865,95.279,264.8358,1.6622e-05,-2.3e-07,0.0,0 STARLINK-3736,1 52113U 22029AB  24060.96492970 -.00000023  00000-0  16622-4 0  9992,2 52113  53.2169 155.3865 0001363  95.2790 264.8358 15.08843354109263,6917.87,95.437,540.678,538.792,0.0
52113.0,STARLINK-3736,PAYLOAD,2024-03-01 13:27:58,15.08843875,0.0001546,53.2164,152.7089,91.3731,268.7438,6.2422e-05,7.06e-06,0.0,0 STARLINK-3736,1 52113U 22029AB  24061.56108976  .00000706  00000-0  62422-4 0  9995,2 52113  53.2164 152.7089 0001546  91.3731 268.7438 15.08843875109352,6917.869,95.437,540.803,538.664,0.0
52113.0,STARLINK-3736,PAYLOAD,2024-03-01 15:03:20,15.08848402,0.0001609,53.2174,152.4117,93.764,266.3536,7.5266e-05,9.1e-06,0.0,0 STARLINK-3736,1 52113U 22029AB  24061.62732637  .00000910  00000-0  75266-4 0  9996,2 52113  53.2174 152.4117 0001609  93.7640 266.3536 15.08848402109362,6917.855,95.437,540.833,538.607,0.0
52113.0,STARLINK-3736,PAYLOAD,2024-03-02 11:43:21,15.08847997,0.0001601,53.2174,148.5445,88.171,271.9465,5.8112e-05,6.37e-06,0.0,0 STARLINK-3736,1 52113U 22029AB  24062.48844585  .00000637  00000-0  58112-4 0  9994,2 52113  53.2174 148.5445 0001601  88.1710 271.9465 15.08847997109495,6917.856,95.437,540.828,538.613,0.0
52113.0,STARLINK-3736,PAYLOAD,2024-03-02 13:18:44,15.08847625,0.0001631,53.2172,148.2498,80.578,279.5396,0.00011141,1.486e-05,0.0,0 STARLINK-3736,1 52113U 22029AB  24062.55468514  .00001486  00000-0  11141-3 0  9999,2 52113  53.2172 148.2498 0001631  80.5780 279.5396 15.08847625109501,6917.857,95.437,540.85,538.594,0.0
52113.0,STARLINK-3736,PAYLOAD,2024-03-03 11:34:09,15.08836025,0.0001866,53.2187,144.0866,88.6913,271.4293,1.9645e-05,2.4e-07,0.0,0 STARLINK-3736,1 52113U 22029AB  24063.48205715  .00000024  00000-0  19645-4 0  9999,2 52113  53.2187 144.0866 0001866  88.6913 271.4293 15.08836025109641,6917.893,95.438,541.048,538.467,0.0
52113.0,STARLINK-3736,PAYLOAD,2024-03-04 11:24:55,15.08858427,0.0001701,53.2176,139.6246,86.7684,273.3503,9.3233e-05,1.197e-05,0.0,0 STARLINK-3736,1 52113U 22029AB  24064.47563783  .00001197  00000-0  93233-4 0  9998,2 52113  53.2176 139.6246 0001701  86.7684 273.3503 15.08858427109794,6917.824,95.436,540.866,538.512,0.0
52113.0,STARLINK-3736,PAYLOAD,2024-03-04 22:32:36,15.08860948,0.0001722,53.2171,137.5425,92.7385,267.3805,0.00026409,3.92e-05,0.0,0 STARLINK-3736,1 52113U 22029AB  24064.93931497  .00003920  00000-0  26409-3 0  9996,2 52113  53.2171 137.5425 0001722  92.7385 267.3805 15.08860948109860,6917.816,95.436,540.873,538.49,0.0
52113.0,STARLINK-3736,PAYLOAD,2024-03-05 14:26:30,15.08819314,0.0001854,53.2167,134.5673,107.983,252.1365,-0.00035104,-5.867e-05,0.0,0 STARLINK-3736,1 52113U 22029AB  24065.60173733 -.00005867  00000-0 -35104-3 0  9998,2 52113  53.2167 134.5673 0001854 107.9830 252.1365 15.08819314109962,6917.944,95.439,541.091,538.526,0.0
52113.0,STARLINK-3736,PAYLOAD,2024-03-06 09:31:06,15.088558,0.0002181,53.217,131.0006,118.0566,242.0647,0.00039883,6.068e-05,0.0,0 STARLINK-3736,1 52113U 22029AB  24066.39660754  .00006068  00000-0  39883-3 0  9999,2 52113  53.2170 131.0006 0002181 118.0566 242.0647 15.08855800110087,6917.832,95.437,541.206,538.188,0.0
52113.0,STARLINK-3736,PAYLOAD,2024-03-07 04:35:45,15.0882408,0.0001454,53.2174,127.4335,109.4906,250.6243,4.4436e-05,4.19e-06,0.0,0 STARLINK-3736,1 52113U 22029AB  24067.19149843  .00000419  00000-0  44436-4 0  9994,2 52113  53.2174 127.4335 0001454 109.4906 250.6243 15.08824080110206,6917.929,95.439,540.8,538.788,0.0
52113.0,STARLINK-3736,PAYLOAD,2024-03-07 10:57:17,15.08835697,0.0001366,53.2172,126.2442,97.8527,262.262,-0.00012831,-2.329e-05,0.0,0 STARLINK-3736,1 52113U 22029AB  24067.45645155 -.00002329  00000-0 -12831-3 0  9997,2 52113  53.2172 126.2442 0001366  97.8527 262.2620 15.08835697110249,6917.894,95.438,540.704,538.814,0.0
52113.0,STARLINK-3736,PAYLOAD,2024-03-08 02:51:09,15.08838871,0.0001425,53.2178,123.2723,98.4268,261.6886,0.00079375,0.00012367,0.0,0 STARLINK-3736,1 52113U 22029AB  24068.11885829  .00012367  00000-0  79375-3 0  9992,2 52113  53.2178 123.2723 0001425  98.4268 261.6886 15.08838871110344,6917.884,95.438,540.735,538.763,0.0
52113.0,STARLINK-3736,PAYLOAD,2024-03-08 10:48:05,15.0883837,0.0001366,53.2172,121.7839,93.6066,266.5082,0.00054301,8.364e-05,0.0,0 STARLINK-3736,1 52113U 22029AB  24068.45006011  .00008364  00000-0  54301-3 0  9991,2 52113  53.2172 121.7839 0001366  93.6066 266.5082 15.08838370110397,6917.885,95.438,540.695,538.805,0.0
52113.0,STARLINK-3736,PAYLOAD,2024-03-08 20:20:23,15.08847341,0.0001307,53.2165,119.9987,86.5183,273.5959,0.00058674,9.064e-05,0.0,0 STARLINK-3736,1 52113U 22029AB  24068.84749830  .00009064  00000-0  58674-3 0  9992,2 52113  53.2165 119.9987 0001307  86.5183 273.5959 15.08847341110454,6917.858,95.437,540.627,538.819,0.0
52113.0,STARLINK-3736,PAYLOAD,2024-03-09 10:38:52,15.08840055,0.000154,53.2166,117.3226,84.7523,275.3645,0.00023012,3.376e-05,0.0,0 STARLINK-3736,1 52113U 22029AB  24069.44366185  .00003376  00000-0  23012-3 0  9995,2 52113  53.2166 117.3226 0001540  84.7523 275.3645 15.08840055110547,6917.88,95.438,540.811,538.68,0.0
52113.0,STARLINK-3736,PAYLOAD,2024-03-09 12:14:15,15.08842578,0.0001394,53.2157,117.025,86.1599,273.9552,0.00026787,3.978e-05,0.0,0 STARLINK-3736,1 52113U 22029AB  24069.50990029  .00003978  00000-0  26787-3 0  9992,2 52113  53.2157 117.0250 0001394  86.1599 273.9552 15.08842578110551,6917.873,95.437,540.702,538.773,0.0
52113.0,STARLINK-3736,PAYLOAD,2024-03-09 20:11:10,15.08848002,0.0001403,53.2155,115.5378,85.3721,274.7431,0.00034217,5.163e-05,0.0,0 STARLINK-3736,1 52113U 22029AB  24069.84109854  .00005163  00000-0  34217-3 0  9992,2 52113  53.2155 115.5378 0001403  85.3721 274.7431 15.08848002110601,6917.856,95.437,540.692,538.75,0.0
52113.0,STARLINK-3736,PAYLOAD,2024-03-10 10:29:39,15.08837997,0.0001381,53.215,112.8603,88.4767,271.6383,0.00010268,1.347e-05,0.0,0 STARLINK-3736,1 52113U 22029AB  24070.43726278  .00001347  00000-0  10268-3 0  9994,2 52113  53.2150 112.8603 0001381  88.4767 271.6383 15.08837997110698,6917.887,95.438,540.707,538.796,0.0
52113.0,STARLINK-3736,PAYLOAD,2024-03-11 08:45:03,15.08845835,0.0001499,53.2144,108.6984,89.4066,270.7098,0.000455,6.962e-05,0.0,0 STARLINK-3736,1 52113U 22029AB  24071.36462402  .00006962  00000-0  45500-3 0  9998,2 52113  53.2144 108.6984 0001499  89.4066 270.7098 15.08845835110838,6917.863,95.437,540.765,538.691,0.0
52113.0,STARLINK-3736,PAYLOAD,2024-03-12 08:35:50,15.08845588,0.0001549,53.2146,104.2378,85.8366,274.2804,0.00020667,3.003e-05,0.0,0 STARLINK-3736,1 52113U 22029AB  24072.35822226  .00003003  00000-0  20667-3 0  9992,2 52113  53.2146 104.2378 0001549  85.8366 274.2804 15.08845588110983,6917.863,95.437,540.8,538.657,0.0
52113.0,STARLINK-3736,PAYLOAD,2024-03-13 08:26:37,15.08841187,0.0001571,53.2156,99.7754,88.9867,271.1305,9.356e-06,-1.39e-06,0.0,0 STARLINK-3736,1 52113U 22029AB  24073.35182236 -.00000139  00000-0  93560-5 0  9995,2 52113  53.2156  99.7754 0001571  88.9867 271.1305 15.08841187111136,6917.877,95.437,540.829,538.655,0.0
52113.0,STARLINK-3736,PAYLOAD,2024-03-14 06:42:01,15.08839488,0.0001473,53.2163,95.6111,90.4628,269.6533,7.7891e-05,9.52e-06,0.0,0 STARLINK-3736,1 52113U 22029AB  24074.27918331  .00000952  00000-0  77891-4 0  9990,2 52113  53.2163  95.6111 0001473  90.4628 269.6533 15.08839488111271,6917.882,95.438,540.766,538.728,0.0
52113.0,STARLINK-3736,PAYLOAD,2024-03-14 08:17:24,15.08840767,0.0001471,53.2164,95.3143,90.023,270.093,8.6206e-05,1.084e-05,0.0,0 STARLINK-3736,1 52113U 22029AB  24074.34542225  .00001084  00000-0  86206-4 0  9990,2 52113  53.2164  95.3143 0001471  90.0230 270.0930 15.08840767111287,6917.878,95.438,540.761,538.725,0.0
52113.0,STARLINK-3736,PAYLOAD,2024-03-15 04:57:25,15.0883642,0.0001377,53.2159,91.4484,89.2145,270.9005,8.4453e-05,1.056e-05,0.0,0 STARLINK-3736,1 52113U 22029AB  24075.20654610  .00001056  00000-0  84453-4 0  9999,2 52113  53.2159  91.4484 0001377  89.2145 270.9005 15.08836420111414,6917.891,95.438,540.709,538.804,0.0
52113.0,STARLINK-3736,PAYLOAD,2024-03-15 06:32:48,15.08836765,0.000139,53.2161,91.1512,89.3595,270.7557,8.4616e-05,1.059e-05,0.0,0 STARLINK-3736,1 52113U 22029AB  24075.27278599  .00001059  00000-0  84616-4 0  9998,2 52113  53.2161  91.1512 0001390  89.3595 270.7557 15.08836765111424,6917.89,95.438,540.717,538.794,0.0
52113.0,STARLINK-3736,PAYLOAD,2024-03-16 09:34:22,15.08838082,0.0001451,53.2166,86.0964,90.8714,269.2445,4.8297e-05,4.81e-06,0.0,0 STARLINK-3736,1 52113U 22029AB  24076.39886874  .00000481  00000-0  48297-4 0  9996,2 52113  53.2166  86.0964 0001451  90.8714 269.2445 15.08838082111592,6917.886,95.438,540.755,538.747,0.0
52113.0,STARLINK-3736,PAYLOAD,2024-03-17 07:49:46,15.08838044,0.0001425,53.2169,81.9349,94.2114,265.9041,0.00011944,1.613e-05,0.0,0 STARLINK-3736,1 52113U 22029AB  24077.32622831  .00001613  00000-0  11944-3 0  9997,2 52113  53.2169  81.9349 0001425  94.2114 265.9041 15.08838044111738,6917.886,95.438,540.737,538.766,0.0
52113.0,STARLINK-3736,PAYLOAD,2024-03-18 04:29:47,15.08839549,0.0001444,53.2169,78.0721,88.6692,271.4466,8.3259e-05,1.037e-05,0.0,0 STARLINK-3736,1 52113U 22029AB  24078.18734954  .00001037  00000-0  83259-4 0  9991,2 52113  53.2169  78.0721 0001444  88.6692 271.4466 15.08839549111866,6917.882,95.438,540.746,538.748,0.0
